ASTROCAST-0403          
1 55111U 23001DG  26068.82333059  .00013959  00000+0  51317-3 0  9990
2 55111  97.5604 161.3228 0004771 338.0704  22.0330 15.28004949129377
STARLINK-32948          
1 63123U 25039V   26068.20933691  .00034089  00000+0  12422-2 0  9995
2 63123  43.0006  15.4642 0000260 296.9102  63.1723 15.27588938 57997
